<?xml version="1.0"?><TrainingCenterDatabase xmlns="http://www.garmin.com/xmlschemas/TrainingCenterDatabase/v2" xmlns:ext="http://www.garmin.com/xmlschemas/ActivityExtension/v2"><Activities><Activity Sport="Running"><Id>2026-10-10T10:00:00Z</Id><Lap StartTime="2026-10-10T10:00:00Z"><TotalTimeSeconds>180</TotalTimeSeconds><DistanceMeters>3000</DistanceMeters><Track><Trackpoint><Time>2026-10-10T10:00:00Z</Time><DistanceMeters>0</DistanceMeters><HeartRateBpm><Value>100</Value></HeartRateBpm><Extensions><ext:TPX><ext:Watts>200</ext:Watts></ext:TPX></Extensions></Trackpoint><Trackpoint><Time>2026-10-10T10:01:00Z</Time><DistanceMeters>1000</DistanceMeters><HeartRateBpm><Value>161</Value></HeartRateBpm><Extensions><ext:TPX><ext:Watts>300</ext:Watts></ext:TPX></Extensions></Trackpoint><Trackpoint><Time>2026-10-10T10:02:00Z</Time><DistanceMeters>3000</DistanceMeters><HeartRateBpm><Value>180</Value></HeartRateBpm><Extensions><ext:TPX><ext:Watts>450</ext:Watts></ext:TPX></Extensions></Trackpoint></Track></Lap></Activity></Activities></TrainingCenterDatabase>